NORAD_CAT_ID,OBJECT_NAME,OBJECT_TYPE,EPOCH,MEAN_MOTION,ECCENTRICITY,INCLINATION,RA_OF_ASC_NODE,ARG_OF_PERICENTER,MEAN_ANOMALY,BSTAR,MEAN_MOTION_DOT,MEAN_MOTION_DDOT,TLE_LINE0,TLE_LINE1,TLE_LINE2,SEMIMAJOR_AXIS,PERIOD,APOGEE,PERIGEE,DECAYED
49734.0,STARLINK-3238,PAYLOAD,2022-02-14 20:00:01,15.17369004,0.0001578,53.2176,330.5534,49.3483,268.2646,-0.035082,-0.00664442,0.0,0 STARLINK-3238,1 49734U 21115L   22045.83334491 -.00664442  00000-0 -35082-1 0  9992,2 49734  53.2176 330.5534 0001578  49.3483 268.2646 15.17369004  3629,6891.933000000001,94.901,514.885,512.71,0.0
49734.0,STARLINK-3238,PAYLOAD,2022-02-15 06:00:00,15.16674908,0.0001802,53.2171,328.6615,39.2715,35.2603,-0.027196,-0.00508277,0.0,0 STARLINK-3238,1 49734U 21115L   22046.25001157 -.00508277  00000-0 -27196-1 0  9999,2 49734  53.2171 328.6615 0001802  39.2715  35.2603 15.16674908 12691,6894.035,94.945,517.143,514.658,0.0
49734.0,STARLINK-3238,PAYLOAD,2022-02-15 14:00:01,15.16222804,0.0001684,53.2175,327.1473,35.9362,59.4457,-0.028635,-0.00527103,0.0,0 STARLINK-3238,1 49734U 21115L   22046.58334491 -.00527103  00000-0 -28635-1 0  9993,2 49734  53.2175 327.1473 0001684  35.9362  59.4457 15.16222804 12745,6895.406,94.973,518.432,516.11,0.0
49734.0,STARLINK-3238,PAYLOAD,2022-02-15 22:00:01,15.15852782,0.0001793,53.2175,325.638,41.3639,74.3265,-0.036731,-0.00665965,0.0,0 STARLINK-3238,1 49734U 21115L   22046.91668981 -.00665965  00000-0 -36731-1 0  9999,2 49734  53.2175 325.6380 0001793  41.3639  74.3265 15.15852782 12795,6896.528,94.996,519.629,517.156,0.0
49734.0,STARLINK-3238,PAYLOAD,2022-02-16 14:00:01,15.14917904,0.0001657,53.2174,322.6177,47.5065,107.0334,-0.037522,-0.00662622,0.0,0 STARLINK-3238,1 49734U 21115L   22047.58334491 -.00662622  00000-0 -37522-1 0  9995,2 49734  53.2174 322.6177 0001657  47.5065 107.0334 15.14917904  3636,6899.365,95.055,522.373,520.087,0.0
49734.0,STARLINK-3238,PAYLOAD,2022-02-16 22:00:00,15.14421153,0.0001806,53.2173,321.1083,46.8561,126.3147,-0.035497,-0.00614377,0.0,0 STARLINK-3238,1 49734U 21115L   22047.91667824 -.00614377  00000-0 -35497-1 0  9994,2 49734  53.2173 321.1083 0001806  46.8561 126.3147 15.14421153  3614,6900.873000000001,95.086,523.985,521.492,0.0
49734.0,STARLINK-3238,PAYLOAD,2022-02-17 06:00:00,15.13894664,0.0002136,53.2169,319.6026,37.086,154.1694,-0.030922,-0.00532425,0.0,0 STARLINK-3238,1 49734U 21115L   22048.25001157 -.00532425  00000-0 -30922-1 0  9994,2 49734  53.2169 319.6026 0002136  37.0860 154.1694 15.13894664 13009,6902.473000000001,95.119,525.813,522.864,0.0
49734.0,STARLINK-3238,PAYLOAD,2022-02-17 14:00:01,15.13518015,0.0001911,53.2173,318.0963,39.3015,169.4012,-0.039008,-0.00662142,0.0,0 STARLINK-3238,1 49734U 21115L   22048.58334491 -.00662142  00000-0 -39008-1 0  9994,2 49734  53.2173 318.0963 0001911  39.3015 169.4012 15.13518015 13055,6903.618,95.143,526.803,524.164,0.0
49734.0,STARLINK-3238,PAYLOAD,2022-02-17 22:00:00,15.13051322,0.0002019,53.2175,316.5924,38.4486,187.1866,-0.039526,-0.00662177,0.0,0 STARLINK-3238,1 49734U 21115L   22048.91667824 -.00662177  00000-0 -39526-1 0  9993,2 49734  53.2175 316.5924 0002019  38.4486 187.1866 15.13051322  3640,6905.038000000001,95.172,528.297,525.509,0.0
49734.0,STARLINK-3238,PAYLOAD,2022-02-18 14:00:01,15.12117962,0.0001788,53.2174,313.5847,42.6659,215.1541,-0.040539,-0.00661599,0.0,0 STARLINK-3238,1 49734U 21115L   22049.58334491 -.00661599  00000-0 -40539-1 0  9991,2 49734  53.2174 313.5847 0001788  42.6659 215.1541 15.12117962  3645,6907.879,95.231,530.979,528.509,0.0
49734.0,STARLINK-3238,PAYLOAD,2022-02-18 20:00:01,15.11769411,0.0002111,53.2176,312.459,35.6077,143.7024,-0.041109,-0.00664247,0.0,0 STARLINK-3238,1 49734U 21115L   22049.83334491 -.00664247  00000-0 -41109-1 0  9996,2 49734  53.2176 312.4590 0002111  35.6077 143.7024 15.11769411 13247,6908.941,95.253,532.264,529.347,0.0
49734.0,STARLINK-3238,PAYLOAD,2022-02-18 22:00:00,15.11651613,0.0002038,53.2175,312.0843,36.0128,237.0574,-0.041094,-0.00661968,0.0,0 STARLINK-3238,1 49734U 21115L   22049.91667824 -.00661968  00000-0 -41094-1 0  9994,2 49734  53.2175 312.0843 0002038  36.0128 237.0574 15.11651613  3625,6909.3,95.26,532.573,529.757,0.0
49734.0,STARLINK-3238,PAYLOAD,2022-02-19 14:00:01,15.10610948,0.0001679,53.2172,309.0813,357.7872,304.1635,-0.032593,-0.0051302,0.0,0 STARLINK-3238,1 49734U 21115L   22050.58334491 -.00513020  00000-0 -32593-1 0  9999,2 49734  53.2172 309.0813 0001679 357.7872 304.1635 15.10610948  3601,6912.473000000001,95.326,535.498,533.177,0.0
49734.0,STARLINK-3238,PAYLOAD,2022-02-19 22:00:00,15.10194934,0.000114,53.2174,307.5838,9.0596,306.4331,-0.037697,-0.00581731,0.0,0 STARLINK-3238,1 49734U 21115L   22050.91667824 -.00581731  00000-0 -37697-1 0  9999,2 49734  53.2174 307.5838 0001140   9.0596 306.4331 15.10194934 13405,6913.7419999999975,95.352,536.395,534.819,0.0
49734.0,STARLINK-3238,PAYLOAD,2022-02-20 06:00:00,15.09727541,0.0001496999999999,53.2168,306.0872,41.0414,287.4581,-0.037921,-0.00577955,0.0,0 STARLINK-3238,1 49734U 21115L   22051.25001157 -.00577955  00000-0 -37921-1 0  9991,2 49734  53.2168 306.0872 0001497  41.0414 287.4581 15.09727541 13454,6915.169,95.381,538.069,535.999,0.0
49734.0,STARLINK-3238,PAYLOAD,2022-02-20 14:00:01,15.09142198,0.000176,53.2173,304.5885,46.2321,294.7604,-0.022976,-0.00351412,0.0,0 STARLINK-3238,1 49734U 21115L   22051.58334491 -.00351412  00000-0 -22976-1 0  9999,2 49734  53.2173 304.5885 0001760  46.2321 294.7604 15.09142198  3606,6916.956999999999,95.418,540.039,537.604,0.0
49734.0,STARLINK-3238,PAYLOAD,2022-02-20 22:00:00,15.08873094,0.0001653,53.2169,303.0904,53.8454,298.9928,-0.0077166,-0.0012115,0.0,0 STARLINK-3238,1 49734U 21115L   22051.91667824 -.00121150  00000-0 -77166-2 0  9991,2 49734  53.2169 303.0904 0001653  53.8454 298.9928 15.08873094 13554,6917.779,95.435,540.788,538.501,0.0
49734.0,STARLINK-3238,PAYLOAD,2022-02-21 06:00:00,15.08857488,0.000178,53.2151,301.5884,46.2058,318.2385,-0.00068217,-0.00011134,0.0,0 STARLINK-3238,1 49734U 21115L   22052.25001157 -.00011134  00000-0 -68217-3 0  9998,2 49734  53.2151 301.5884 0001780  46.2058 318.2385 15.08857488 13600,6917.8269999999975,95.436,540.923,538.461,0.0
49734.0,STARLINK-3238,PAYLOAD,2022-02-21 22:00:00,15.088710199999998,0.0001768,53.2153,298.5954,50.987,336.6883,-0.0013714,-0.00022066,0.0,0 STARLINK-3238,1 49734U 21115L   22052.91667824 -.00022066  00000-0 -13714-2 0  9997,2 49734  53.2153 298.5954 0001768  50.9870 336.6883 15.08871020 13701,6917.786,95.436,540.874,538.428,0.0
49734.0,STARLINK-3238,PAYLOAD,2022-02-22 14:00:01,15.08835906,0.0001561999999999,53.2148,295.6007,55.4332,355.5022,0.0014995,0.00023654,0.0,0 STARLINK-3238,1 49734U 21115L   22053.58334491  .00023654  00000-0  14995-2 0  9996,2 49734  53.2148 295.6007 0001562  55.4332 355.5022 15.08835906  3614,6917.893,95.438,540.8380000000002,538.677,0.0
49734.0,STARLINK-3238,PAYLOAD,2022-02-22 22:00:00,15.08860695,0.0001688,53.2154,294.1059,50.0785,12.4592,-0.0019023,-0.00030453,0.0,0 STARLINK-3238,1 49734U 21115L   22053.91667824 -.00030453  00000-0 -19023-2 0  9996,2 49734  53.2154 294.1059 0001688  50.0785  12.4592 15.08860695 13855,6917.816999999999,95.436,540.85,538.514,0.0
49734.0,STARLINK-3238,PAYLOAD,2022-02-23 14:00:01,15.088115300000002,0.0001514,53.2168,291.1112,53.9496,31.7884,0.0026046,0.00041375,0.0,0 STARLINK-3238,1 49734U 21115L   22054.58334491  .00041375  00000-0  26046-2 0  9997,2 49734  53.2168 291.1112 0001514  53.9496  31.7884 15.08811530  3622,6917.967,95.439,540.88,538.785,0.0
49734.0,STARLINK-3238,PAYLOAD,2022-02-23 20:00:01,15.08845663,0.0001629,53.217,289.9903,50.9726,313.4412,-0.0017297,-0.00027715,0.0,0 STARLINK-3238,1 49734U 21115L   22054.83334491 -.00027715  00000-0 -17297-2 0  9997,2 49734  53.2170 289.9903 0001629  50.9726 313.4412 15.08845663 13990,6917.863,95.437,540.855,538.601,0.0
49734.0,STARLINK-3238,PAYLOAD,2022-02-23 22:00:00,15.08837348,0.0001696,53.2169,289.6167,49.6096,47.7043,-0.0010128,-0.0001636999999999,0.0,0 STARLINK-3238,1 49734U 21115L   22054.91667824 -.00016370  00000-0 -10128-2 0  9996,2 49734  53.2169 289.6167 0001696  49.6096  47.7043 15.08837348  3634,6917.888000000001,95.438,540.927,538.58,0.0
49734.0,STARLINK-3238,PAYLOAD,2022-02-24 14:00:01,15.08822462,0.000164,53.2171,286.628,57.5796,62.9089,-0.0028122,-0.00044745,0.0,0 STARLINK-3238,1 49734U 21115L   22055.58334491 -.00044745  00000-0 -28122-2 0  9991,2 49734  53.2171 286.6280 0001640  57.5796  62.9089 15.08822462  3612,6917.934,95.439,540.934,538.664,0.0
49734.0,STARLINK-3238,PAYLOAD,2022-02-24 22:00:00,15.08846851,0.0001789,53.2168,285.1275,50.1889,81.899,-0.00067202,-0.0001097,0.0,0 STARLINK-3238,1 49734U 21115L   22055.91667824 -.00010970  00000-0 -67202-3 0  9993,2 49734  53.2168 285.1275 0001789  50.1889  81.8990 15.08846851  3600,6917.859,95.437,540.962,538.487,0.0
49734.0,STARLINK-3238,PAYLOAD,2022-02-25 06:00:00,15.08863005,0.0001758,53.2167,283.6307,48.4689,95.213,-0.0016307,-0.00026163,0.0,0 STARLINK-3238,1 49734U 21115L   22056.25001157 -.00026163  00000-0 -16307-2 0  9992,2 49734  53.2167 283.6307 0001758  48.4689  95.2130 15.08863005 14216,6917.81,95.436,540.891,538.4590000000002,0.0
49734.0,STARLINK-3238,PAYLOAD,2022-02-25 14:00:01,15.08848343,0.0001648,53.2169,282.1331,54.6676,100.6254,-0.00091319,-0.00014795,0.0,0 STARLINK-3238,1 49734U 21115L   22056.58334491 -.00014795  00000-0 -91319-3 0  9993,2 49734  53.2169 282.1331 0001648  54.6676 100.6254 15.08848343  3609,6917.855,95.437,540.86,538.58,0.0
49734.0,STARLINK-3238,PAYLOAD,2022-02-25 22:00:00,15.08828277,0.0001798,53.217,280.6386,48.2193,118.6745,-0.00026876,-4.562e-05,0.0,0 STARLINK-3238,1 49734U 21115L   22056.91667824 -.00004562  00000-0 -26876-3 0  9996,2 49734  53.2170 280.6386 0001798  48.2193 118.6745 15.08828277  3612,6917.916,95.438,541.025,538.5369999999998,0.0
